[
    {
        "Altitude(m)": 607886.7420966523,
        "Argument of Periapsis(deg)": 0.0,
        "Eccentricity": 0.0,
        "Inclination(deg)": 60.0,
        "Latitude(deg)": 40.99858084183306,
        "Longitude(deg)": 104.9729595204706,
        "Mean Anomaly(deg)": 49.09089999999999,
        "RAAN(deg)": 175.0,
        "Satellite Name": "Test1 773",
        "Satellite Number": 773,
        "Semi-Major Axis(m)": 6980739.136638005,
        "Time(s)": 0
    },
    {
        "Altitude(m)": 607987.656322275,
        "Argument of Periapsis(deg)": 0.00010418945913296404,
        "Eccentricity": 0.0,
        "Inclination(deg)": 60.0,
        "Latitude(deg)": 41.46367110331105,
        "Longitude(deg)": 105.47718812159418,
        "Mean Anomaly(deg)": 49.71100614546182,
        "RAAN(deg)": 174.99957995086024,
        "Satellite Name": "Test1 773",
        "Satellite Number": 773,
        "Semi-Major Axis(m)": 6980739.136638005,
        "Time(s)": 10
    },
    {
        "Altitude(m)": 608088.6201500777,
        "Argument of Periapsis(deg)": 0.0002083789182659281,
        "Eccentricity": 0.0,
        "Inclination(deg)": 60.0,
        "Latitude(deg)": 41.92609718339002,
        "Longitude(deg)": 105.98923978168996,
        "Mean Anomaly(deg)": 50.33111229092365,
        "RAAN(deg)": 174.9991599017205,
        "Satellite Name": "Test1 773",
        "Satellite Number": 773,
        "Semi-Major Axis(m)": 6980739.136638005,
        "Time(s)": 20
    },
    {
        "Altitude(m)": 608189.5703587293,
        "Argument of Periapsis(deg)": 0.00031256837739889213,
        "Eccentricity": 0.0,
        "Inclination(deg)": 60.0,
        "Latitude(deg)": 42.38577833205035,
        "Longitude(deg)": 106.50931054346279,
        "Mean Anomaly(deg)": 50.951218436385474,
        "RAAN(deg)": 174.99873985258077,
        "Satellite Name": "Test1 773",
        "Satellite Number": 773,
        "Semi-Major Axis(m)": 6980739.136638005,
        "Time(s)": 30
    },
    {
        "Altitude(m)": 608290.4439536323,
        "Argument of Periapsis(deg)": 0.0004167578365318562,
        "Eccentricity": 0.0,
        "Inclination(deg)": 60.0,
        "Latitude(deg)": 42.842631252208335,
        "Longitude(deg)": 107.03760031638677,
        "Mean Anomaly(deg)": 51.5713245818473,
        "RAAN(deg)": 174.99831980344103,
        "Satellite Name": "Test1 773",
        "Satellite Number": 773,
        "Semi-Major Axis(m)": 6980739.136638005,
        "Time(s)": 40
    },
    {
        "Altitude(m)": 608391.178198172,
        "Argument of Periapsis(deg)": 0.0005209472956648203,
        "Eccentricity": 0.0,
        "Inclination(deg)": 60.0,
        "Latitude(deg)": 43.29657002032866,
        "Longitude(deg)": 107.57431178168304,
        "Mean Anomaly(deg)": 52.191430727309154,
        "RAAN(deg)": 174.99789975430127,
        "Satellite Name": "Test1 773",
        "Satellite Number": 773,
        "Semi-Major Axis(m)": 6980739.136638005,
        "Time(s)": 50
    },
    {
        "Altitude(m)": 608491.710644803,
        "Argument of Periapsis(deg)": 0.0006251367547977843,
        "Eccentricity": 0.0,
        "Inclination(deg)": 60.0,
        "Latitude(deg)": 43.747506006327605,
        "Longitude(deg)": 108.11965079040675,
        "Mean Anomaly(deg)": 52.81153687277099,
        "RAAN(deg)": 174.99747970516154,
        "Satellite Name": "Test1 773",
        "Satellite Number": 773,
        "Semi-Major Axis(m)": 6980739.136638005,
        "Time(s)": 60
    },
    {
        "Altitude(m)": 608591.9791659212,
        "Argument of Periapsis(deg)": 0.0007293262139307483,
        "Eccentricity": 0.0,
        "Inclination(deg)": 60.0,
        "Latitude(deg)": 44.195347792998966,
        "Longitude(deg)": 108.67382673987808,
        "Mean Anomaly(deg)": 53.43164301823282,
        "RAAN(deg)": 174.9970596560218,
        "Satellite Name": "Test1 773",
        "Satellite Number": 773,
        "Semi-Major Axis(m)": 6980739.136638005,
        "Time(s)": 70
    },
    {
        "Altitude(m)": 608691.9219845675,
        "Argument of Periapsis(deg)": 0.0008335156730637124,
        "Eccentricity": 0.0,
        "Inclination(deg)": 60.0,
        "Latitude(deg)": 44.64000109522779,
        "Longitude(deg)": 109.23705141357028,
        "Mean Anomaly(deg)": 54.051749163694645,
        "RAAN(deg)": 174.99663960688207,
        "Satellite Name": "Test1 773",
        "Satellite Number": 773,
        "Semi-Major Axis(m)": 6980739.136638005,
        "Time(s)": 80
    },
    {
        "Altitude(m)": 608791.4777048904,
        "Argument of Periapsis(deg)": 0.0009377051321966765,
        "Eccentricity": 0.0,
        "Inclination(deg)": 60.0,
        "Latitude(deg)": 45.08136867929302,
        "Longitude(deg)": 109.80953930807057,
        "Mean Anomaly(deg)": 54.67185530915647,
        "RAAN(deg)": 174.9962195577423,
        "Satellite Name": "Test1 773",
        "Satellite Number": 773,
        "Semi-Major Axis(m)": 6980739.136638005,
        "Time(s)": 90
    },
    {
        "Altitude(m)": 608890.585342381,
        "Argument of Periapsis(deg)": 0.0010418945913296407,
        "Eccentricity": 0.0,
        "Inclination(deg)": 60.0,
        "Latitude(deg)": 45.51935028260126,
        "Longitude(deg)": 110.39150793198095,
        "Mean Anomaly(deg)": 55.2919614546183,
        "RAAN(deg)": 174.9957995086026,
        "Satellite Name": "Test1 773",
        "Satellite Number": 773,
        "Semi-Major Axis(m)": 6980739.136638005,
        "Time(s)": 100
    },
    {
        "Altitude(m)": 608989.1843538667,
        "Argument of Periapsis(deg)": 0.0011460840504626045,
        "Eccentricity": 0.0,
        "Inclination(deg)": 60.0,
        "Latitude(deg)": 45.953842534238454,
        "Longitude(deg)": 110.98317656150114,
        "Mean Anomaly(deg)": 55.9120676000801,
        "RAAN(deg)": 174.99537945946284,
        "Satellite Name": "Test1 773",
        "Satellite Number": 773,
        "Semi-Major Axis(m)": 6980739.136638005,
        "Time(s)": 110
    },
    {
        "Altitude(m)": 609087.2146672449,
        "Argument of Periapsis(deg)": 0.0012502735095955685,
        "Eccentricity": 0.0,
        "Inclination(deg)": 60.0,
        "Latitude(deg)": 46.384738876770214,
        "Longitude(deg)": 111.58476647594738,
        "Mean Anomaly(deg)": 56.53217374554198,
        "RAAN(deg)": 174.9949594103231,
        "Satellite Name": "Test1 773",
        "Satellite Number": 773,
        "Semi-Major Axis(m)": 6980739.136638005,
        "Time(s)": 120
    },
    {
        "Altitude(m)": 609184.6167109417,
        "Argument of Periapsis(deg)": 0.0013544629687285324,
        "Eccentricity": 0.0,
        "Inclination(deg)": 60.0,
        "Latitude(deg)": 46.81192948977496,
        "Longitude(deg)": 112.19650115771978,
        "Mean Anomaly(deg)": 57.15227989100378,
        "RAAN(deg)": 174.99453936118334,
        "Satellite Name": "Test1 773",
        "Satellite Number": 773,
        "Semi-Major Axis(m)": 6980739.136638005,
        "Time(s)": 130
    },
    {
        "Altitude(m)": 609281.3314430987,
        "Argument of Periapsis(deg)": 0.0014586524278614966,
        "Eccentricity": 0.0,
        "Inclination(deg)": 60.0,
        "Latitude(deg)": 47.23530121564922,
        "Longitude(deg)": 112.81860494112695,
        "Mean Anomaly(deg)": 57.77238603646561,
        "RAAN(deg)": 174.99411931204364,
        "Satellite Name": "Test1 773",
        "Satellite Number": 773,
        "Semi-Major Axis(m)": 6980739.136638005,
        "Time(s)": 140
    },
    {
        "Altitude(m)": 609377.3003804334,
        "Argument of Periapsis(deg)": 0.0015628418869944607,
        "Eccentricity": 0.0,
        "Inclination(deg)": 60.0,
        "Latitude(deg)": 47.6547374882783,
        "Longitude(deg)": 113.45130313301001,
        "Mean Anomaly(deg)": 58.39249218192746,
        "RAAN(deg)": 174.99369926290387,
        "Satellite Name": "Test1 773",
        "Satellite Number": 773,
        "Semi-Major Axis(m)": 6980739.136638005,
        "Time(s)": 150
    },
    {
        "Altitude(m)": 609472.4656268283,
        "Argument of Periapsis(deg)": 0.0016670313461274247,
        "Eccentricity": 0.0,
        "Inclination(deg)": 60.0,
        "Latitude(deg)": 48.07011826523198,
        "Longitude(deg)": 114.09482208940562,
        "Mean Anomaly(deg)": 59.01259832738929,
        "RAAN(deg)": 174.99327921376414,
        "Satellite Name": "Test1 773",
        "Satellite Number": 773,
        "Semi-Major Axis(m)": 6980739.136638005,
        "Time(s)": 160
    },
    {
        "Altitude(m)": 609566.7699015543,
        "Argument of Periapsis(deg)": 0.0017712208052603888,
        "Eccentricity": 0.0,
        "Inclination(deg)": 60.0,
        "Latitude(deg)": 48.48131996420864,
        "Longitude(deg)": 114.74938773242525,
        "Mean Anomaly(deg)": 59.63270447285114,
        "RAAN(deg)": 174.99285916462438,
        "Satellite Name": "Test1 773",
        "Satellite Number": 773,
        "Semi-Major Axis(m)": 6980739.136638005,
        "Time(s)": 170
    },
    {
        "Altitude(m)": 609660.1565671966,
        "Argument of Periapsis(deg)": 0.001875410264393353,
        "Eccentricity": 0.0,
        "Inclination(deg)": 60.0,
        "Latitude(deg)": 48.88821540451784,
        "Longitude(deg)": 115.41522553012256,
        "Mean Anomaly(deg)": 60.25281061831297,
        "RAAN(deg)": 174.99243911548467,
        "Satellite Name": "Test1 773",
        "Satellite Number": 773,
        "Semi-Major Axis(m)": 6980739.136638005,
        "Time(s)": 180
    },
    {
        "Altitude(m)": 609752.5696572063,
        "Argument of Periapsis(deg)": 0.0019795997235263173,
        "Eccentricity": 0.0,
        "Inclination(deg)": 60.0,
        "Latitude(deg)": 49.290673754466766,
        "Longitude(deg)": 116.09256042348666,
        "Mean Anomaly(deg)": 60.87291676377477,
        "RAAN(deg)": 174.99201906634488,
        "Satellite Name": "Test1 773",
        "Satellite Number": 773,
        "Semi-Major Axis(m)": 6980739.136638005,
        "Time(s)": 190
    }
]